start=new Date('2022-09-05T00:00:00.000Z').valueOf();
sats=[{"PERIOD":"95.437","SITE":"AFETR","LAUNCH_DATE":"2022-04-29","INCLINATION":"53.2174","EPOCH":"2022-09-04T20:00:01.000224","ECCENTRICITY":"0.00021280","MEAN_ANOMALY":"205.9384","TIME_SYSTEM":"UTC","RA_OF_ASC_NODE":"193.5811","ARG_OF_PERICENTER":"55.4123","TLE_LINE2":"2 52358  53.2174 193.5811 0002128  55.4123 205.9384 15.08841427  1303","REV_AT_EPOCH":"130","BSTAR":"0.00115590000000","MEAN_MOTION_DDOT":"0.0000000000000","EPHEMERIS_TYPE":"0","MEAN_MOTION":"15.08841427","MEAN_MOTION_DOT":"0.00018157","ELEMENT_SET_NO":"999","CLASSIFICATION_TYPE":"U","PERIAPSIS":"538.269","MEAN_ELEMENT_THEORY":"SGP4","REF_FRAME":"TEME","SEMIMAJOR_AXIS":"6917.876","RCS_SIZE":"LARGE","GP_ID":"211754295","FILE":"3558394","APOAPSIS":"541.213","COUNTRY_CODE":"US","OBJECT_ID":"2022-045AD","NORAD_CAT_ID":"52358","DECAY_DATE":null,"OBJECT_TYPE":"PAYLOAD","TLE_LINE1":"1 52358U 22045AD  22247.83334491  .00018157  00000-0  11559-2 0  9993","CENTER_NAME":"EARTH","OBJECT_NAME":"STARLINK-3837"},{"CENTER_NAME":"EARTH","TLE_LINE1":"1 52359U 22045AE  22247.83334491  .00038233  00000-0  24080-2 0  9994","OBJECT_TYPE":"PAYLOAD","OBJECT_NAME":"STARLINK-3853","DECAY_DATE":null,"NORAD_CAT_ID":"52359","OBJECT_ID":"2022-045AE","APOAPSIS":"541.353","COUNTRY_CODE":"US","GP_ID":"211753753","FILE":"3558394","RCS_SIZE":"LARGE","REF_FRAME":"TEME","SEMIMAJOR_AXIS":"6917.913","PERIAPSIS":"538.203","CLASSIFICATION_TYPE":"U","MEAN_ELEMENT_THEORY":"SGP4","MEAN_MOTION_DOT":"0.00038233","ELEMENT_SET_NO":"999","MEAN_MOTION":"15.08829269","EPHEMERIS_TYPE":"0","TLE_LINE2":"2 52359  53.2181 193.5932 0002277  56.4227 124.9380 15.08829269  1303","REV_AT_EPOCH":"130","MEAN_MOTION_DDOT":"0.0000000000000","BSTAR":"0.00240800000000","ARG_OF_PERICENTER":"56.4227","RA_OF_ASC_NODE":"193.5932","TIME_SYSTEM":"UTC","MEAN_ANOMALY":"124.9380","INCLINATION":"53.2181","EPOCH":"2022-09-04T20:00:01.000224","ECCENTRICITY":"0.00022770","LAUNCH_DATE":"2022-04-29","SITE":"AFETR","PERIOD":"95.438"},{"RCS_SIZE":"LARGE","REF_FRAME":"TEME","SEMIMAJOR_AXIS":"6917.842","CLASSIFICATION_TYPE":"U","PERIAPSIS":"538.323","MEAN_ELEMENT_THEORY":"SGP4","MEAN_MOTION_DOT":"0.00009677","ELEMENT_SET_NO":"999","MEAN_MOTION":"15.08852608","EPHEMERIS_TYPE":"0","TLE_LINE2":"2 52360  53.2161 183.6023 0002000  54.3669 241.9756 15.08852608  1305","REV_AT_EPOCH":"130","MEAN_MOTION_DDOT":"0.0000000000000","BSTAR":"0.00062505000000","TLE_LINE1":"1 52360U 22045AF  22247.83334491  .00009677  00000-0  62505-3 0  9991","OBJECT_TYPE":"PAYLOAD","OBJECT_NAME":"STARLINK-3824","CENTER_NAME":"EARTH","DECAY_DATE":null,"NORAD_CAT_ID":"52360","OBJECT_ID":"2022-045AF","APOAPSIS":"541.090","COUNTRY_CODE":"US","GP_ID":"211754423","FILE":"3558394","INCLINATION":"53.2161","ECCENTRICITY":"0.00020000","EPOCH":"2022-09-04T20:00:01.000224","LAUNCH_DATE":"2022-04-29","SITE":"AFETR","PERIOD":"95.437","ARG_OF_PERICENTER":"54.3669","RA_OF_ASC_NODE":"183.6023","TIME_SYSTEM":"UTC","MEAN_ANOMALY":"241.9756"},{"MEAN_MOTION_DDOT":"0.0000000000000","BSTAR":"0.00247910000000","TLE_LINE2":"2 52361  53.2164 193.5869 0002730  56.5169 164.7883 15.08831400  1306","REV_AT_EPOCH":"130","EPHEMERIS_TYPE":"0","MEAN_MOTION":"15.08831400","ELEMENT_SET_NO":"999","MEAN_MOTION_DOT":"0.00039380","MEAN_ELEMENT_THEORY":"SGP4","CLASSIFICATION_TYPE":"U","PERIAPSIS":"537.883","SEMIMAJOR_AXIS":"6917.907","REF_FRAME":"TEME","RCS_SIZE":"LARGE","FILE":"3558394","GP_ID":"211754021","COUNTRY_CODE":"US","APOAPSIS":"541.660","OBJECT_ID":"2022-045AG","NORAD_CAT_ID":"52361","DECAY_DATE":null,"OBJECT_NAME":"STARLINK-3728","TLE_LINE1":"1 52361U 22045AG  22247.83334491  .00039380  00000-0  24791-2 0  9990","OBJECT_TYPE":"PAYLOAD","CENTER_NAME":"EARTH","PERIOD":"95.438","SITE":"AFETR","LAUNCH_DATE":"2022-04-29","ECCENTRICITY":"0.00027300","EPOCH":"2022-09-04T20:00:01.000224","INCLINATION":"53.2164","TIME_SYSTEM":"UTC","MEAN_ANOMALY":"164.7883","RA_OF_ASC_NODE":"193.5869","ARG_OF_PERICENTER":"56.5169"},{"SITE":"AFETR","PERIOD":"95.436","LAUNCH_DATE":"2022-04-29","INCLINATION":"53.2155","EPOCH":"2022-09-04T20:00:01.000224","ECCENTRICITY":"0.00023720","TIME_SYSTEM":"UTC","MEAN_ANOMALY":"260.8872","RA_OF_ASC_NODE":"183.5998","ARG_OF_PERICENTER":"55.4758","EPHEMERIS_TYPE":"0","REV_AT_EPOCH":"130","TLE_LINE2":"2 52362  53.2155 183.5998 0002372  55.4758 260.8872 15.08857193  1306","BSTAR":"-0.00036457000000","MEAN_MOTION_DDOT":"0.0000000000000","MEAN_MOTION":"15.08857193","ELEMENT_SET_NO":"999","MEAN_MOTION_DOT":"-0.00006089","REF_FRAME":"TEME","SEMIMAJOR_AXIS":"6917.828","CLASSIFICATION_TYPE":"U","PERIAPSIS":"538.052","MEAN_ELEMENT_THEORY":"SGP4","RCS_SIZE":"LARGE","GP_ID":"211754710","FILE":"3558394","OBJECT_ID":"2022-045AH","APOAPSIS":"541.334","COUNTRY_CODE":"US","DECAY_DATE":null,"NORAD_CAT_ID":"52362","OBJECT_TYPE":"PAYLOAD","TLE_LINE1":"1 52362U 22045AH  22247.83334491 -.00006089  00000-0 -36457-3 0  9996","CENTER_NAME":"EARTH","OBJECT_NAME":"STARLINK-3848"},{"OBJECT_ID":"2022-045AJ","APOAPSIS":"541.226","COUNTRY_CODE":"US","GP_ID":"211753253","FILE":"3558394","TLE_LINE1":"1 52363U 22045AJ  22247.83334491  .00003375  00000-0  22991-3 0  9998","OBJECT_TYPE":"PAYLOAD","CENTER_NAME":"EARTH","OBJECT_NAME":"STARLINK-3830","DECAY_DATE":null,"NORAD_CAT_ID":"52363","ELEMENT_SET_NO":"999","MEAN_MOTION":"15.08862896","MEAN_MOTION_DOT":"0.00003375","EPHEMERIS_TYPE":"0","TLE_LINE2":"2 52363  53.2166 193.5816 0002241  61.4063 179.9034 15.08862896  1306","REV_AT_EPOCH":"130","MEAN_MOTION_DDOT":"0.0000000000000","BSTAR":"0.00022991000000","RCS_SIZE":"LARGE","REF_FRAME":"TEME","SEMIMAJOR_AXIS":"6917.810","CLASSIFICATION_TYPE":"U","PERIAPSIS":"538.125","MEAN_ELEMENT_THEORY":"SGP4","RA_OF_ASC_NODE":"193.5816","TIME_SYSTEM":"UTC","MEAN_ANOMALY":"179.9034","ARG_OF_PERICENTER":"61.4063","LAUNCH_DATE":"2022-04-29","SITE":"AFETR","PERIOD":"95.436","INCLINATION":"53.2166","ECCENTRICITY":"0.00022410","EPOCH":"2022-09-04T20:00:01.000224"},{"RA_OF_ASC_NODE":"183.5914","TIME_SYSTEM":"UTC","MEAN_ANOMALY":"297.7719","ARG_OF_PERICENTER":"53.3245","LAUNCH_DATE":"2022-04-29","SITE":"AFETR","PERIOD":"95.436","INCLINATION":"53.2153","ECCENTRICITY":"0.00022630","EPOCH":"2022-09-04T20:00:01.000224","OBJECT_ID":"2022-045AK","APOAPSIS":"541.237","COUNTRY_CODE":"US","GP_ID":"211754009","FILE":"3558394","TLE_LINE1":"1 52364U 22045AK  22247.83334491 -.00058713  00000-0 -36986-2 0  9995","CENTER_NAME":"EARTH","OBJECT_TYPE":"PAYLOAD","OBJECT_NAME":"STARLINK-3820","DECAY_DATE":null,"NORAD_CAT_ID":"52364","MEAN_MOTION":"15.08864228","ELEMENT_SET_NO":"999","MEAN_MOTION_DOT":"-0.00058713","EPHEMERIS_TYPE":"0","REV_AT_EPOCH":"130","TLE_LINE2":"2 52364  53.2153 183.5914 0002263  53.3245 297.7719 15.08864228  1307","MEAN_MOTION_DDOT":"0.0000000000000","BSTAR":"-0.00369860000000","RCS_SIZE":"LARGE","REF_FRAME":"TEME","SEMIMAJOR_AXIS":"6917.806","CLASSIFICATION_TYPE":"U","PERIAPSIS":"538.106","MEAN_ELEMENT_THEORY":"SGP4"},{"INCLINATION":"53.2143","EPOCH":"2022-09-04T20:00:01.000224","ECCENTRICITY":"0.00021120","SITE":"AFETR","PERIOD":"95.436","LAUNCH_DATE":"2022-04-29","ARG_OF_PERICENTER":"60.3082","TIME_SYSTEM":"UTC","MEAN_ANOMALY":"216.0606","RA_OF_ASC_NODE":"183.5937","REF_FRAME":"TEME","SEMIMAJOR_AXIS":"6917.811","CLASSIFICATION_TYPE":"U","PERIAPSIS":"538.215","MEAN_ELEMENT_THEORY":"SGP4","RCS_SIZE":"LARGE","EPHEMERIS_TYPE":"0","REV_AT_EPOCH":"130","TLE_LINE2":"2 52365  53.2143 183.5937 0002112  60.3082 216.0606 15.08862761  1301","MEAN_MOTION_DDOT":"0.0000000000000","BSTAR":"-0.00084469000000","ELEMENT_SET_NO":"999","MEAN_MOTION":"15.08862761","MEAN_MOTION_DOT":"-0.00013715","DECAY_DATE":null,"NORAD_CAT_ID":"52365","TLE_LINE1":"1 52365U 22045AL  22247.83334491 -.00013715  00000-0 -84469-3 0  9999","OBJECT_TYPE":"PAYLOAD","OBJECT_NAME":"STARLINK-3874","CENTER_NAME":"EARTH","GP_ID":"211754436","FILE":"3558394","OBJECT_ID":"2022-045AL","APOAPSIS":"541.137","COUNTRY_CODE":"US"},{"TIME_SYSTEM":"UTC","MEAN_ANOMALY":"319.9259","RA_OF_ASC_NODE":"183.5920","ARG_OF_PERICENTER":"56.4422","SITE":"AFETR","PERIOD":"95.437","LAUNCH_DATE":"2022-04-29","EPOCH":"2022-09-04T20:00:01.000224","ECCENTRICITY":"0.00023610","INCLINATION":"53.2147","FILE":"3558394","GP_ID":"211754296","OBJECT_ID":"2022-045AM","COUNTRY_CODE":"US","APOAPSIS":"541.350","DECAY_DATE":null,"NORAD_CAT_ID":"52366","TLE_LINE1":"1 52366U 22045AM  22247.83334491  .00009093  00000-0  58853-3 0  9990","OBJECT_TYPE":"PAYLOAD","OBJECT_NAME":"STARLINK-3808","CENTER_NAME":"EARTH","EPHEMERIS_TYPE":"0","MEAN_MOTION_DDOT":"0.0000000000000","BSTAR":"0.00058853000000","TLE_LINE2":"2 52366  53.2147 183.5920 0002361  56.4422 319.9259 15.08849250  1303","REV_AT_EPOCH":"130","MEAN_MOTION":"15.08849250","MEAN_MOTION_DOT":"0.00009093","ELEMENT_SET_NO":"999","SEMIMAJOR_AXIS":"6917.852","REF_FRAME":"TEME","MEAN_ELEMENT_THEORY":"SGP4","CLASSIFICATION_TYPE":"U","PERIAPSIS":"538.084","RCS_SIZE":"LARGE"},{"REF_FRAME":"TEME","SEMIMAJOR_AXIS":"6917.682","CLASSIFICATION_TYPE":"U","PERIAPSIS":"538.032","MEAN_ELEMENT_THEORY":"SGP4","RCS_SIZE":"LARGE","EPHEMERIS_TYPE":"0","TLE_LINE2":"2 52367  53.2155 183.5923 0002190  54.7263 281.5862 15.08905038  1301","REV_AT_EPOCH":"130","BSTAR":"-0.01081700000000","MEAN_MOTION_DDOT":"0.0000000000000","MEAN_MOTION":"15.08905038","ELEMENT_SET_NO":"999","MEAN_MOTION_DOT":"-0.00168745","DECAY_DATE":null,"NORAD_CAT_ID":"52367","TLE_LINE1":"1 52367U 22045AN  22247.83334491 -.00168745  00000-0 -10817-1 0  9999","OBJECT_TYPE":"PAYLOAD","OBJECT_NAME":"STARLINK-3817","CENTER_NAME":"EARTH","GP_ID":"211753754","FILE":"3558394","OBJECT_ID":"2022-045AN","APOAPSIS":"541.062","COUNTRY_CODE":"US","INCLINATION":"53.2155","ECCENTRICITY":"0.00021900","EPOCH":"2022-09-04T20:00:01.000224","SITE":"AFETR","PERIOD":"95.433","LAUNCH_DATE":"2022-04-29","ARG_OF_PERICENTER":"54.7263","MEAN_ANOMALY":"281.5862","TIME_SYSTEM":"UTC","RA_OF_ASC_NODE":"183.5923"}];
